NOAA 1                  
1 04793U 70106A   26095.62539789 -.00000036  00000+0  37591-4 0  9996
2 04793 101.3455 133.5135 0032062 128.5208 350.7098 12.54049778531596
NOAA 2 (ITOS-D)         
1 06235U 72082A   26095.57122375 -.00000036  00000+0  66316-4 0  9994
2 06235 102.0138 113.3337 0003724 311.8367 165.7500 12.53212780445850
NOAA 3                  
1 06920U 73086A   26095.62284071 -.00000042  00000+0  34591-4 0  9995
2 06920 102.2889 108.8636 0006191 257.4818 223.0834 12.40392533372908
NOAA 4                  
1 07529U 74089A   26095.63022471 -.00000046  00000+0  46572-5 0  9997
2 07529 102.0059 107.6506 0008828 337.5832 136.8657 12.53202291350432
NOAA 5                  
1 09057U 76077A   26095.52299353 -.00000039  00000+0  55612-4 0  9993
2 09057 102.2991  81.1754 0010090 111.8143   3.6927 12.37829300245487
TIROS N                 
1 11060U 78096A   26095.59973177  .00000238  00000+0  13282-3 0  9999
2 11060  98.4597 119.9221 0011643  93.2749 266.9760 14.19351260668453
NOAA 6                  
1 11416U 79057A   26095.59708740  .00000422  00000+0  16207-3 0  9999
2 11416  98.5707 125.5828 0010999 111.5746 248.6613 14.35455253440549
NOAA 7                  
1 12553U 81059A   26095.47877450  .00000072  00000+0  56820-4 0  9996
2 12553  98.8008 163.2957 0012469 114.5876 245.6600 14.17779232314440
NOAA 8                  
1 13923U 83022A   26095.56704594  .00000200  00000+0  95357-4 0  9999
2 13923  98.7359 108.4529 0015867 109.7992 250.4903 14.29778117240695
NOAA 9                  
1 15427U 84123A   26095.62824234  .00000159  00000+0  10240-3 0  9994
2 15427  99.1061 120.5630 0014484 191.5535 279.7656 14.17048516133145
NOAA 10                 
1 16969U 86073A   26095.57760233  .00000193  00000+0  93461-4 0  9999
2 16969  98.7025  88.9221 0011525 203.7795 266.0524 14.29155715 59044
NOAA 11                 
1 19531U 88089A   26095.57050460  .00000086  00000+0  65426-4 0  9991
2 19531  98.6139  43.7114 0011648 142.0296 218.1702 14.15827135937200
NOAA 12                 
1 21263U 91032A   26095.54333900  .00000158  00000+0  83104-4 0  9991
2 21263  98.6181  85.1320 0012625 238.3511 121.6438 14.26726728814606
NOAA 13                 
1 22739U 93050A   26095.47493000  .00000173  00000+0  11426-3 0  9996
2 22739  98.6975  42.4814 0009188 344.0461  16.0421 14.13645835683102
NOAA 14                 
1 23455U 94089A   26095.55879179  .00000087  00000+0  66988-4 0  9997
2 23455  98.5067  68.5056 0008428 295.9760  64.0545 14.14661686612934
NOAA 15                 
1 25338U 98030A   26095.55132948  .00000209  00000+0  10309-3 0  9996
2 25338  98.5131 118.1278 0009962 193.8485 166.2424 14.27124043450936
NOAA 16                 
1 26536U 00055A   26095.56002173  .00000132  00000+0  90946-4 0  9995
2 26536  98.4678 113.6602 0011094 144.7626 215.4283 14.13906225613468
