[{"OBJECT_NAME":"NOAA 1","OBJECT_ID":"1970-106A","EPOCH":"2026-04-05T15:00:34.377696","MEAN_MOTION":12.54049778,"ECCENTRICITY":0.00320623,"INCLINATION":101.3455,"RA_OF_ASC_NODE":133.5135,"ARG_OF_PERICENTER":128.5208,"MEAN_ANOMALY":350.7098,"EPHEMERIS_TYPE":0,"CLASSIFICATION_TYPE":"U","NORAD_CAT_ID":4793,"ELEMENT_SET_NO":999,"REV_AT_EPOCH":53159,"BSTAR":3.7591493e-5,"MEAN_MOTION_DOT":-3.6e-7,"MEAN_MOTION_DDOT":0},{"OBJECT_NAME":"NOAA 2 (ITOS-D)","OBJECT_ID":"1972-082A","EPOCH":"2026-04-05T13:42:33.732000","MEAN_MOTION":12.5321278,"ECCENTRICITY":0.00037246,"INCLINATION":102.0138,"RA_OF_ASC_NODE":113.3337,"ARG_OF_PERICENTER":311.8367,"MEAN_ANOMALY":165.75,"EPHEMERIS_TYPE":0,"CLASSIFICATION_TYPE":"U","NORAD_CAT_ID":6235,"ELEMENT_SET_NO":999,"REV_AT_EPOCH":44585,"BSTAR":6.6316022e-5,"MEAN_MOTION_DOT":-3.6e-7,"MEAN_MOTION_DDOT":0},{"OBJECT_NAME":"NOAA 3","OBJECT_ID":"1973-086A","EPOCH":"2026-04-05T14:56:53.437344","MEAN_MOTION":12.40392533,"ECCENTRICITY":0.00061919,"INCLINATION":102.2889,"RA_OF_ASC_NODE":108.8636,"ARG_OF_PERICENTER":257.4818,"MEAN_ANOMALY":223.0834,"EPHEMERIS_TYPE":0,"CLASSIFICATION_TYPE":"U","NORAD_CAT_ID":6920,"ELEMENT_SET_NO":999,"REV_AT_EPOCH":37290,"BSTAR":3.4591434e-5,"MEAN_MOTION_DOT":-4.2e-7,"MEAN_MOTION_DDOT":0},{"OBJECT_NAME":"NOAA 4","OBJECT_ID":"1974-089A","EPOCH":"2026-04-05T15:07:31.414944","MEAN_MOTION":12.53202291,"ECCENTRICITY":0.00088285,"INCLINATION":102.0059,"RA_OF_ASC_NODE":107.6506,"ARG_OF_PERICENTER":337.5832,"MEAN_ANOMALY":136.8657,"EPHEMERIS_TYPE":0,"CLASSIFICATION_TYPE":"U","NORAD_CAT_ID":7529,"ELEMENT_SET_NO":999,"REV_AT_EPOCH":35043,"BSTAR":4.657198e-6,"MEAN_MOTION_DOT":-4.6e-7,"MEAN_MOTION_DDOT":0},{"OBJECT_NAME":"NOAA 5","OBJECT_ID":"1976-077A","EPOCH":"2026-04-05T12:33:06.640992","MEAN_MOTION":12.378293,"ECCENTRICITY":0.00100909,"INCLINATION":102.2991,"RA_OF_ASC_NODE":81.1754,"ARG_OF_PERICENTER":111.8143,"MEAN_ANOMALY":3.6927,"EPHEMERIS_TYPE":0,"CLASSIFICATION_TYPE":"U","NORAD_CAT_ID":9057,"ELEMENT_SET_NO":999,"REV_AT_EPOCH":24548,"BSTAR":5.5612338e-5,"MEAN_MOTION_DOT":-3.9e-7,"MEAN_MOTION_DDOT":0},{"OBJECT_NAME":"TIROS N","OBJECT_ID":"1978-096A","EPOCH":"2026-04-05T14:23:36.824928","MEAN_MOTION":14.1935126,"ECCENTRICITY":0.0011643,"INCLINATION":98.4597,"RA_OF_ASC_NODE":119.9221,"ARG_OF_PERICENTER":93.2749,"MEAN_ANOMALY":266.976,"EPHEMERIS_TYPE":0,"CLASSIFICATION_TYPE":"U","NORAD_CAT_ID":11060,"ELEMENT_SET_NO":999,"REV_AT_EPOCH":66845,"BSTAR":0.00013281783,"MEAN_MOTION_DOT":2.38e-6,"MEAN_MOTION_DDOT":0},{"OBJECT_NAME":"NOAA 6","OBJECT_ID":"1979-057A","EPOCH":"2026-04-05T14:19:48.351360","MEAN_MOTION":14.35455253,"ECCENTRICITY":0.00109996,"INCLINATION":98.5707,"RA_OF_ASC_NODE":125.5828,"ARG_OF_PERICENTER":111.5746,"MEAN_ANOMALY":248.6613,"EPHEMERIS_TYPE":0,"CLASSIFICATION_TYPE":"U","NORAD_CAT_ID":11416,"ELEMENT_SET_NO":999,"REV_AT_EPOCH":44054,"BSTAR":0.00016206655,"MEAN_MOTION_DOT":4.22e-6,"MEAN_MOTION_DDOT":0},{"OBJECT_NAME":"NOAA 7","OBJECT_ID":"1981-059A","EPOCH":"2026-04-05T11:29:26.116800","MEAN_MOTION":14.17779232,"ECCENTRICITY":0.00124692,"INCLINATION":98.8008,"RA_OF_ASC_NODE":163.2957,"ARG_OF_PERICENTER":114.5876,"MEAN_ANOMALY":245.66,"EPHEMERIS_TYPE":0,"CLASSIFICATION_TYPE":"U","NORAD_CAT_ID":12553,"ELEMENT_SET_NO":999,"REV_AT_EPOCH":31444,"BSTAR":5.6819773e-5,"MEAN_MOTION_DOT":7.2e-7,"MEAN_MOTION_DDOT":0},{"OBJECT_NAME":"NOAA 8","OBJECT_ID":"1983-022A","EPOCH":"2026-04-05T13:36:32.769216","MEAN_MOTION":14.29778117,"ECCENTRICITY":0.00158676,"INCLINATION":98.7359,"RA_OF_ASC_NODE":108.4529,"ARG_OF_PERICENTER":109.7992,"MEAN_ANOMALY":250.4903,"EPHEMERIS_TYPE":0,"CLASSIFICATION_TYPE":"U","NORAD_CAT_ID":13923,"ELEMENT_SET_NO":999,"REV_AT_EPOCH":24069,"BSTAR":9.5357258e-5,"MEAN_MOTION_DOT":2.0e-6,"MEAN_MOTION_DDOT":0},{"OBJECT_NAME":"NOAA 9","OBJECT_ID":"1984-123A","EPOCH":"2026-04-05T15:04:40.138176","MEAN_MOTION":14.17048516,"ECCENTRICITY":0.00144846,"INCLINATION":99.1061,"RA_OF_ASC_NODE":120.563,"ARG_OF_PERICENTER":191.5535,"MEAN_ANOMALY":279.7656,"EPHEMERIS_TYPE":0,"CLASSIFICATION_TYPE":"U","NORAD_CAT_ID":15427,"ELEMENT_SET_NO":999,"REV_AT_EPOCH":13314,"BSTAR":0.0001024028,"MEAN_MOTION_DOT":1.59e-6,"MEAN_MOTION_DDOT":0},{"OBJECT_NAME":"NOAA 10","OBJECT_ID":"1986-073A","EPOCH":"2026-04-05T13:51:44.841312","MEAN_MOTION":14.29155715,"ECCENTRICITY":0.00115254,"INCLINATION":98.7025,"RA_OF_ASC_NODE":88.9221,"ARG_OF_PERICENTER":203.7795,"MEAN_ANOMALY":266.0524,"EPHEMERIS_TYPE":0,"CLASSIFICATION_TYPE":"U","NORAD_CAT_ID":16969,"ELEMENT_SET_NO":999,"REV_AT_EPOCH":5904,"BSTAR":9.3460796e-5,"MEAN_MOTION_DOT":1.93e-6,"MEAN_MOTION_DDOT":0},{"OBJECT_NAME":"NOAA 11","OBJECT_ID":"1988-089A","EPOCH":"2026-04-05T13:41:31.597440","MEAN_MOTION":14.15827135,"ECCENTRICITY":0.0011648,"INCLINATION":98.6139,"RA_OF_ASC_NODE":43.7114,"ARG_OF_PERICENTER":142.0296,"MEAN_ANOMALY":218.1702,"EPHEMERIS_TYPE":0,"CLASSIFICATION_TYPE":"U","NORAD_CAT_ID":19531,"ELEMENT_SET_NO":999,"REV_AT_EPOCH":93720,"BSTAR":6.5426396e-5,"MEAN_MOTION_DOT":8.6e-7,"MEAN_MOTION_DDOT":0},{"OBJECT_NAME":"NOAA 12","OBJECT_ID":"1991-032A","EPOCH":"2026-04-05T13:02:24.489600","MEAN_MOTION":14.26726728,"ECCENTRICITY":0.00126251,"INCLINATION":98.6181,"RA_OF_ASC_NODE":85.132,"ARG_OF_PERICENTER":238.3511,"MEAN_ANOMALY":121.6438,"EPHEMERIS_TYPE":0,"CLASSIFICATION_TYPE":"U","NORAD_CAT_ID":21263,"ELEMENT_SET_NO":999,"REV_AT_EPOCH":81460,"BSTAR":8.3104369e-5,"MEAN_MOTION_DOT":1.58e-6,"MEAN_MOTION_DDOT":0},{"OBJECT_NAME":"NOAA 13","OBJECT_ID":"1993-050A","EPOCH":"2026-04-05T11:23:53.952000","MEAN_MOTION":14.13645835,"ECCENTRICITY":0.00091882,"INCLINATION":98.6975,"RA_OF_ASC_NODE":42.4814,"ARG_OF_PERICENTER":344.0461,"MEAN_ANOMALY":16.0421,"EPHEMERIS_TYPE":0,"CLASSIFICATION_TYPE":"U","NORAD_CAT_ID":22739,"ELEMENT_SET_NO":999,"REV_AT_EPOCH":68310,"BSTAR":0.00011426001,"MEAN_MOTION_DOT":1.73e-6,"MEAN_MOTION_DDOT":0},{"OBJECT_NAME":"NOAA 14","OBJECT_ID":"1994-089A","EPOCH":"2026-04-05T13:24:39.610656","MEAN_MOTION":14.14661686,"ECCENTRICITY":0.00084288,"INCLINATION":98.5067,"RA_OF_ASC_NODE":68.5056,"ARG_OF_PERICENTER":295.976,"MEAN_ANOMALY":64.0545,"EPHEMERIS_TYPE":0,"CLASSIFICATION_TYPE":"U","NORAD_CAT_ID":23455,"ELEMENT_SET_NO":999,"REV_AT_EPOCH":61293,"BSTAR":6.698803e-5,"MEAN_MOTION_DOT":8.7e-7,"MEAN_MOTION_DDOT":0},{"OBJECT_NAME":"NOAA 15","OBJECT_ID":"1998-030A","EPOCH":"2026-04-05T13:13:54.867072","MEAN_MOTION":14.27124043,"ECCENTRICITY":0.00099621,"INCLINATION":98.5131,"RA_OF_ASC_NODE":118.1278,"ARG_OF_PERICENTER":193.8485,"MEAN_ANOMALY":166.2424,"EPHEMERIS_TYPE":0,"CLASSIFICATION_TYPE":"U","NORAD_CAT_ID":25338,"ELEMENT_SET_NO":999,"REV_AT_EPOCH":45093,"BSTAR":0.00010308876,"MEAN_MOTION_DOT":2.09e-6,"MEAN_MOTION_DDOT":0},{"OBJECT_NAME":"NOAA 16","OBJECT_ID":"2000-055A","EPOCH":"2026-04-05T13:26:25.877472","MEAN_MOTION":14.13906225,"ECCENTRICITY":0.00110946,"INCLINATION":98.4678,"RA_OF_ASC_NODE":113.6602,"ARG_OF_PERICENTER":144.7626,"MEAN_ANOMALY":215.4283,"EPHEMERIS_TYPE":0,"CLASSIFICATION_TYPE":"U","NORAD_CAT_ID":26536,"ELEMENT_SET_NO":999,"REV_AT_EPOCH":61346,"BSTAR":9.0945716e-5,"MEAN_MOTION_DOT":1.32e-6,"MEAN_MOTION_DDOT":0}]
